STARLINK-4275           
1 53008U 22076Y   26068.78874537  .00000244  00000+0  33402-4 0  9999
2 53008  53.2171  93.6662 0001399  82.4868 277.6283 15.08840177202861
DISKSAT A               
1 67222U 25305D   26068.54789610  .00013824  00000+0  90452-3 0  9996
2 67222  45.0023 251.6019 0004082 318.1929  41.8634 15.07741062 12266
